     2.100          NAVIGATION                              RINEX VERSION / TYPE
fic2rin                                 02/02/2012 02:48:34 PGM / RUN BY / DATE
                                                            END OF HEADER
 3 12  2  1  5 59 44.0  .374717637897D-05  .500222085975D-11  .000000000000D+00
     .380000000000D+02 -.201250000000D+02  .548451416632D-08  .287437523555D+00
    -.862404704094D-06  .149959535338D-01  .718049705029D-05  .515369928360D+04
     .280784000000D+06 -.184401869774D-06 -.277926273888D+00  .115483999252D-06
     .930735960020D+00  .226468750000D+03  .116800091744D+01 -.870071956275D-08
     .115004790411D-09  .100000000000D+01  .167300000000D+04  .000000000000D+00
     .240000000000D+01  .000000000000D+00 -.419095158577D-08  .380000000000D+02
     .278316000000D+06  .400000000000D+01
 3 12  2  1  7 59 44.0  .378349795938D-05  .500222085975D-11  .000000000000D+00
     .450000000000D+02 -.270937500000D+02  .544236955368D-08  .133754383622D+01
    -.146962702274D-05  .149968510959D-01  .766105949879D-05  .515370183182D+04
     .287984000000D+06 -.385567545891D-06 -.277989404655D+00 -.577419996262D-07
     .930737253240D+00  .220406250000D+03  .116806643715D+01 -.857071414750D-08
     .218223375594D-09  .100000000000D+01  .167300000000D+04  .000000000000D+00
     .240000000000D+01  .000000000000D+00 -.419095158577D-08  .450000000000D+02
     .280806000000D+06  .400000000000D+01
 7 12  2  1  7 59 44.0  .539417378604D-04  .272848410532D-11  .000000000000D+00
     .540000000000D+02 -.279687500000D+02  .423803367397D-08 -.324738189506D+00
    -.144168734550D-05  .507746217772D-02  .509060919285D-05  .515362325478D+04
     .287984000000D+06  .502914190292D-07 -.222756392462D+01  .260770320892D-07
     .975585249613D+00  .287437500000D+03 -.300366693330D+01 -.810212320024D-08
     .357157734196D-12  .100000000000D+01  .167300000000D+04  .000000000000D+00
     .240000000000D+01  .000000000000D+00 -.107102096081D-07  .540000000000D+02
     .280806000000D+06  .400000000000D+01
 1 12  2  1  8  0  0.0  .198763795197D-03  .111413100967D-10  .000000000000D+00
     .610000000000D+02 -.621875000000D+01  .467198032102D-08 -.560951670163D+00
    -.391155481339D-06  .578444916755D-03  .775419175625D-05  .515365793800D+04
     .288000000000D+06 -.391155481339D-07  .894884601158D+00  .167638063431D-07
     .960089041162D+00  .226656250000D+03  .101301723294D+01 -.802104839458D-08
    -.232866842696D-09  .100000000000D+01  .167300000000D+04  .000000000000D+00
     .240000000000D+01  .000000000000D+00  .838190317154D-08  .610000000000D+02
     .280806000000D+06  .400000000000D+01
 2 12  2  1  8  0  0.0  .377144664526D-03  .159161572810D-11  .000000000000D+00
     .800000000000D+02  .268750000000D+01  .522271754715D-08  .120689246876D+01
     .258907675743D-06  .108667019522D-01  .766478478909D-05  .515363493729D+04
     .288000000000D+06 -.186264514923D-08  .883653894634D+00  .163912773132D-06
     .938667991084D+00  .221250000000D+03 -.287522771888D+01 -.832713257278D-08
    -.371086885830D-09  .100000000000D+01  .167300000000D+04  .000000000000D+00
     .240000000000D+01  .000000000000D+00 -.172294676304D-07  .800000000000D+02
     .280806000000D+06  .400000000000D+01
 4 12  2  1  8  0  0.0  .806576572359D-04  .114823706099D-10  .000000000000D+00
     .790000000000D+02 -.109375000000D+01  .512664211665D-08 -.198468848620D+01
    -.128522515297D-06  .998885207810D-02  .757537782192D-05  .515378500557D+04
     .288000000000D+06  .134110450745D-06  .900704368695D+00 -.409781932831D-07
     .937720883290D+00  .219343750000D+03  .827312369727D+00 -.811748098281D-08
    -.107504477993D-09  .100000000000D+01  .167300000000D+04  .000000000000D+00
     .240000000000D+01  .000000000000D+00 -.605359673500D-08  .790000000000D+02
     .280806000000D+06  .400000000000D+01
 5 12  2  1  8  0  0.0 -.277507118881D-03 -.454747350886D-11  .000000000000D+00
     .270000000000D+02  .644375000000D+02  .460340603605D-08  .309890302900D+01
     .329315662384D-05  .269198790193D-02  .884197652340D-05  .515360037231D+04
     .288000000000D+06  .000000000000D+00  .194684508056D+01 -.111758708954D-07
     .951598757634D+00  .206000000000D+03  .292787931381D+00 -.801104797802D-08
    -.188936441390D-09  .100000000000D+01  .167300000000D+04  .000000000000D+00
     .240000000000D+01  .000000000000D+00 -.102445483208D-07  .270000000000D+02
     .280806000000D+06  .400000000000D+01
 6 12  2  1  8  0  0.0  .280817039311D-04  .204636307899D-11  .000000000000D+00
     .430000000000D+02 -.190000000000D+02  .515842915499D-08 -.300869221636D+01
    -.854954123497D-06  .696407270152D-02  .720098614693D-05  .515369978905D+04
     .288000000000D+06 -.111758708954D-06 -.202323448749D+00  .800937414169D-07
     .937715754299D+00  .226281250000D+03 -.615355748791D+00 -.815926843771D-08
     .277868717205D-09  .100000000000D+01  .167300000000D+04  .000000000000D+00
     .240000000000D+01  .000000000000D+00 -.512227416039D-08  .430000000000D+02
     .280806000000D+06  .400000000000D+01
 8 12  2  1  8  0  0.0  .533647835255D-06  .113686837722D-12  .000000000000D+00
     .710000000000D+02 -.350312500000D+02  .371801201298D-08 -.902346908245D+00
    -.189244747162D-05  .120744401356D-01  .515207648277D-05  .515371157837D+04
     .288000000000D+06  .176951289177D-06 -.214673029545D+01 -.115483999252D-06
     .997560058072D+00  .294875000000D+03 -.298044810466D+01 -.783032616451D-08
     .596453416107D-10  .100000000000D+01  .167300000000D+04  .000000000000D+00
     .340000000000D+01  .000000000000D+00 -.465661287308D-08  .710000000000D+02
     .280806000000D+06  .400000000000D+01
 9 12  2  1  8  0  0.0  .135635025799D-03  .250111042988D-11  .000000000000D+00
     .540000000000D+02 -.357187500000D+02  .417981696330D-08 -.974563793397D+00
    -.163912773132D-05  .171828785678D-01  .495649874210D-05  .515363732147D+04
     .288000000000D+06 -.236555933952D-06 -.225415260847D+01  .178813934326D-06
     .984391211845D+00  .302312500000D+03  .160396942498D+01 -.828213069827D-08
     .357157734196D-12  .100000000000D+01  .167300000000D+04  .000000000000D+00
     .340000000000D+01  .000000000000D+00 -.558793544769D-08  .540000000000D+02
     .280806000000D+06  .400000000000D+01
10 12  2  1  8  0  0.0 -.275978818536D-04 -.136424205266D-11  .000000000000D+00
     .460000000000D+02  .605312500000D+02  .462554981557D-08 -.278989945677D+01
     .304542481899D-05  .111499670893D-01  .867992639542D-05  .515367134476D+04
     .288000000000D+06  .316649675369D-07  .196908793804D+01 -.134110450745D-06
     .946509186638D+00  .204750000000D+03  .739974200084D+00 -.790497213096D-08
    -.120719314158D-09  .100000000000D+01  .167300000000D+04  .000000000000D+00
     .340000000000D+01  .000000000000D+00 -.232830643654D-08  .460000000000D+02
     .280806000000D+06  .400000000000D+01
11 12  2  1  8  0  0.0 -.228274613619D-03 -.352429196937D-11  .000000000000D+00
     .900000000000D+02 -.112187500000D+02  .655205863383D-08 -.146624021993D+00
    -.461935997009D-06  .127333921846D-01  .677630305290D-05  .515367081451D+04
     .288000000000D+06 -.689178705215D-07  .633459027940D+00  .137835741043D-06
     .888127054857D+00  .208468750000D+03  .102551449590D+01 -.918573976579D-08
    -.122147945095D-09  .100000000000D+01  .167300000000D+04  .000000000000D+00
     .240000000000D+01  .000000000000D+00 -.116415321827D-07  .900000000000D+02
     .280806000000D+06  .400000000000D+01
12 12  2  1  8  0  0.0  .499170273542D-04  .216004991671D-11  .000000000000D+00
     .890000000000D+02 -.659375000000D+02  .415338729097D-08 -.444781421560D+00
    -.338815152645D-05  .380674912594D-02  .814162194729D-05  .515357870674D+04
     .288000000000D+06  .707805156708D-07 -.117133717965D+01 -.931322574615D-08
     .978207502475D+00  .234093750000D+03 -.678342795586D-01 -.785782731005D-08
     .210365905441D-09  .100000000000D+01  .167300000000D+04  .000000000000D+00
     .240000000000D+01  .000000000000D+00 -.121071934700D-07  .890000000000D+02
     .280806000000D+06  .400000000000D+01
13 12  2  1  8  0  0.0  .227493233979D-03 -.216004991671D-11  .000000000000D+00
     .800000000000D+01  .495312500000D+02  .385123184784D-08  .208949206321D+01
     .259838998318D-05  .473069678992D-02  .500306487083D-05  .515372425652D+04
     .288000000000D+06  .968575477600D-07  .308427841104D+01  .428408384323D-07
     .987344344592D+00  .295218750000D+03  .194067898326D+01 -.778460997454D-08
     .642883921553D-11  .100000000000D+01  .167300000000D+04  .000000000000D+00
     .240000000000D+01  .000000000000D+00 -.111758708954D-07  .800000000000D+01
     .280806000000D+06  .400000000000D+01
14 12  2  1  8  0  0.0  .192242208868D-03  .147792889038D-11  .000000000000D+00
     .530000000000D+02  .605000000000D+02  .402088177158D-08  .209827669463D+01
     .316277146339D-05  .620223057922D-02  .545009970665D-05  .515376858139D+04
     .288000000000D+06 -.521540641785D-07  .305840055763D+01 -.134110450745D-06
     .980231291642D+00  .281843750000D+03 -.205689705758D+01 -.787997108957D-08
     .914323799542D-10  .100000000000D+01  .167300000000D+04  .000000000000D+00
     .240000000000D+01  .000000000000D+00 -.884756445885D-08  .530000000000D+02
     .280806000000D+06  .400000000000D+01
15 12  2  1  8  0  0.0 -.936747528613D-04  .568434188608D-12  .000000000000D+00
     .870000000000D+02  .715937500000D+02  .482234372712D-08  .174853538163D+01
     .376813113689D-05  .429005629849D-02  .497698783875D-05  .515376391029D+04
     .288000000000D+06 -.111758708954D-07  .297447114365D+01  .204890966415D-07
     .947123392794D+00  .275937500000D+03  .150850333808D-01 -.834713340590D-08
    -.678599694973D-11  .100000000000D+01  .167300000000D+04  .000000000000D+00
     .240000000000D+01  .000000000000D+00 -.102445483208D-07  .870000000000D+02
     .280806000000D+06  .400000000000D+01
